*******************************************************************************
Ephemeris / PORT_LOGIN Sun Nov 27 10:14:47 2011 Pasadena, USA    / Horizons    
*******************************************************************************
Target body name: Cressida (709)                  {source: URA086}
Center body name: Solar System Barycenter (0)     {source: DE405}
Center-site name: BODY CENTER
*******************************************************************************
Start time      : A.D. 2001-Jan-01 10:00:00.0000 CT 
Stop  time      : A.D. 2001-Jan-02 00:00:00.0000 CT 
Step-size       : 60 minutes
*******************************************************************************
Center geodetic : 0.00000000,0.00000000,0.0000000 {E-lon(deg),Lat(deg),Alt(km)}
Center cylindric: 0.00000000,0.00000000,0.0000000 {E-lon(deg),Dxy(km),Dz(km)}
Center radii    : (undefined)                                                  
Output units    : AU-D                                                         
Output format   : 03
Reference frame : ICRF/J2000.0                                                 
Output type     : GEOMETRIC cartesian states
Coordinate systm: Earth Mean Equator and Equinox of Reference Epoch            
*******************************************************************************
JDCT 
   X     Y     Z
   VX    VY    VZ
   LT    RG    RR
*******************************************************************************
$$SOE
2451910.916666667 = A.D. 2001-Jan-01 10:00:00.0000 (CT)
   1.536957478575922E+01 -1.158001940727719E+01 -5.288746739055419E+00
   7.470379392069119E-03  9.633121234842965E-04  3.032323380162828E-03
   1.152634188019729E-01  1.995724231044538E+01  4.390596150888451E-03
2451910.958333333 = A.D. 2001-Jan-01 11:00:00.0000 (CT)
   1.536990083972903E+01 -1.157996535696222E+01 -5.288682451360851E+00
   7.894305420400472E-03  1.701805458618471E-03  3.061596589655157E-05
   1.152645895310721E-01  1.995744501590523E+01  5.084113976141084E-03
2451911.000000000 = A.D. 2001-Jan-01 12:00:00.0000 (CT)
   1.537020902920281E+01 -1.157987359036225E+01 -5.288739453001750E+00
   6.636048898110861E-03  2.725229311468880E-03 -2.633877901514862E-03
   1.152657400610945E-01  1.995764422400334E+01  4.227429890301079E-03
2451911.041666667 = A.D. 2001-Jan-01 13:00:00.0000 (CT)
   1.537043573665098E+01 -1.157973872071952E+01 -5.288885593084477E+00
   4.087908725036836E-03  3.715466852207422E-03 -4.133882444828852E-03
   1.152665201666115E-01  1.995777929508655E+01  2.088029618487512E-03
2451911.083333333 = A.D. 2001-Jan-01 14:00:00.0000 (CT)
   1.537054269828983E+01 -1.157956874721723E+01 -5.289061077097818E+00
   1.041779532723992E-03  4.365280920237922E-03 -4.005027314840306E-03
   1.152666949412693E-01  1.995780955638048E+01 -6.690373312520131E-04
2451911.125000000 = A.D. 2001-Jan-01 15:00:00.0000 (CT)
   1.537052882583925E+01 -1.157938255141248E+01 -5.289197056556960E+00
  -1.557428373132313E-03  4.473410407164716E-03 -2.288387705164185E-03
   1.152662174342628E-01  1.995772687860524E+01 -3.188444004173677E-03
2451911.166666667 = A.D. 2001-Jan-01 16:00:00.0000 (CT)
   1.537043049644129E+01 -1.157920403578336E+01 -5.289236963028867E+00
  -2.904017916102183E-03  4.006462286300041E-03  4.834831244860835E-04
   1.152652429519409E-01  1.995755815222155E+01 -4.689196239031042E-03
2451911.208333333 = A.D. 2001-Jan-01 17:00:00.0000 (CT)
   1.537031027559359E+01 -1.157905472208531E+01 -5.289154015002499E+00
  -2.580021455001617E-03  3.109075693102108E-03  3.451308736934368E-03
   1.152640809033415E-01  1.995735694974365E+01 -4.705552522112592E-03
2451911.250000000 = A.D. 2001-Jan-01 18:00:00.0000 (CT)
   1.537023755241150E+01 -1.157894708375103E+01 -5.288959530019114E+00
  -6.847623988481907E-04  2.059436797993246E-03  5.694188058374186E-03
   1.152630990578499E-01  1.995718694846664E+01 -3.231287095076454E-03
2451911.291666667 = A.D. 2001-Jan-01 19:00:00.0000 (CT)
   1.537026702656840E+01 -1.157888066465413E+01 -5.288699466358443E+00
   2.194499034016441E-03  1.183465361987660E-03  6.514711290554604E-03
   1.152626095536933E-01  1.995710219344925E+01 -7.229265071057700E-04
2451911.333333333 = A.D. 2001-Jan-01 20:00:00.0000 (CT)
   1.537042168675946E+01 -1.157884219821777E+01 -5.288440203828188E+00
   5.163422415271254E-03  7.536616767384871E-04  5.656549191406171E-03
   1.152627718052126E-01  1.995713028642897E+01  2.040530251622095E-03
2451911.375000000 = A.D. 2001-Jan-01 21:00:00.0000 (CT)
   1.537068560610857E+01 -1.157880971567638E+01 -5.288247918482826E+00
   7.298520515329835E-03  9.039548975433032E-04  3.385793439650882E-03
   1.152635426401078E-01  1.995726375235375E+01  4.199555029738456E-03
2451911.416666667 = A.D. 2001-Jan-01 22:00:00.0000 (CT)
   1.537100886686381E+01 -1.157875938108586E+01 -5.288167968896647E+00
   7.935637923794998E-03  1.587599132001371E-03  4.087966863690884E-04
   1.152646895584886E-01  1.995746233511551E+01  5.082537313708719E-03
2451911.458333333 = A.D. 2001-Jan-01 23:00:00.0000 (CT)
   1.537132310961660E+01 -1.157867291605734E+01 -5.288210767402325E+00
   6.877451866400583E-03  2.591780409803311E-03 -2.348520147474788E-03
   1.152658631649685E-01  1.995766553877840E+01  4.415627996873080E-03
2451911.500000000 = A.D. 2001-Jan-02 00:00:00.0000 (CT)
   1.537156282411216E+01 -1.157854328271709E+01 -5.288348572817297E+00
   4.454125581099348E-03  3.604295044458470E-03 -4.029826551177422E-03
   1.152667060167002E-01  1.995781147403189E+01  2.407353760884223E-03
$$EOE
*******************************************************************************
Coordinate system description:

  Earth Mean Equator and Equinox of Reference Epoch

    Reference epoch: J2000.0
    xy-plane: plane of the Earth's mean equator at the reference epoch
    x-axis  : out along ascending node of instantaneous plane of the Earth's
              orbit and the Earth's mean equator at the reference epoch
    z-axis  : along the Earth mean north pole at the reference epoch

Symbol meaning [1 AU=149597870.691 km, 1 day=86400.0 s]:

    JDCT     Epoch Julian Date, Coordinate Time
      X      x-component of position vector (AU)                               
      Y      y-component of position vector (AU)                               
      Z      z-component of position vector (AU)                               
      VX     x-component of velocity vector (AU/day)                           
      VY     y-component of velocity vector (AU/day)                           
      VZ     z-component of velocity vector (AU/day)                           
      LT     One-way down-leg Newtonian light-time (day)                       
      RG     Range; distance from coordinate center (AU)                       
      RR     Range-rate; radial velocity wrt coord. center (AU/day)            

Geometric states/elements have no aberration corrections applied.

 Computations by ...
     Solar System Dynamics Group, Horizons On-Line Ephemeris System
     4800 Oak Grove Drive, Jet Propulsion Laboratory
     Pasadena, CA  91109   USA
     Information: http://ssd.jpl.nasa.gov/
     Connect    : telnet://ssd.jpl.nasa.gov:6775  (via browser)
                  telnet ssd.jpl.nasa.gov 6775    (via command-line)
     Author     : Jon.Giorgini@jpl.nasa.gov
*******************************************************************************
